[
    {
        "Altitude(m)": 574666.3267313804,
        "Argument of Periapsis(deg)": -0.03013754771062987,
        "Eccentricity": 0.0,
        "Inclination(deg)": 97.0,
        "Latitude(deg)": 65.26962556394442,
        "Longitude(deg)": -88.51110663005866,
        "Mean Anomaly(deg)": 66.15689102558332,
        "RAAN(deg)": 30.00792940482468,
        "Satellite Name": "Starlink Shell 3 1645",
        "Satellite Number": 1645,
        "Semi-Major Axis(m)": 6938478.169268562,
        "Time(s)": 760
    },
    {
        "Altitude(m)": 574777.3238885241,
        "Argument of Periapsis(deg)": -0.030534094391032898,
        "Eccentricity": 0.0,
        "Inclination(deg)": 97.0,
        "Latitude(deg)": 65.8658671592429,
        "Longitude(deg)": -88.99470559811878,
        "Mean Anomaly(deg)": 66.78236722328836,
        "RAAN(deg)": 30.00803373909869,
        "Satellite Name": "Starlink Shell 3 1645",
        "Satellite Number": 1645,
        "Semi-Major Axis(m)": 6938478.169268562,
        "Time(s)": 770
    },
    {
        "Altitude(m)": 574886.1887548998,
        "Argument of Periapsis(deg)": -0.030930641071435925,
        "Eccentricity": 0.0,
        "Inclination(deg)": 97.0,
        "Latitude(deg)": 66.46072288446848,
        "Longitude(deg)": -89.49925538879143,
        "Mean Anomaly(deg)": 67.4078434209934,
        "RAAN(deg)": 30.008138073372695,
        "Satellite Name": "Starlink Shell 3 1645",
        "Satellite Number": 1645,
        "Semi-Major Axis(m)": 6938478.169268562,
        "Time(s)": 780
    },
    {
        "Altitude(m)": 574992.8586743975,
        "Argument of Periapsis(deg)": -0.031327187751838945,
        "Eccentricity": 0.0,
        "Inclination(deg)": 97.0,
        "Latitude(deg)": 67.0540903108909,
        "Longitude(deg)": -90.02633541216088,
        "Mean Anomaly(deg)": 68.03331961869846,
        "RAAN(deg)": 30.008242407646705,
        "Satellite Name": "Starlink Shell 3 1645",
        "Satellite Number": 1645,
        "Semi-Major Axis(m)": 6938478.169268562,
        "Time(s)": 790
    },
    {
        "Altitude(m)": 575097.2723328853,
        "Argument of Periapsis(deg)": -0.031723734432241975,
        "Eccentricity": 0.0,
        "Inclination(deg)": 97.0,
        "Latitude(deg)": 67.64585632507026,
        "Longitude(deg)": -90.57768151941525,
        "Mean Anomaly(deg)": 68.6587958164035,
        "RAAN(deg)": 30.008346741920718,
        "Satellite Name": "Starlink Shell 3 1645",
        "Satellite Number": 1645,
        "Semi-Major Axis(m)": 6938478.169268562,
        "Time(s)": 800
    },
    {
        "Altitude(m)": 575199.369787532,
        "Argument of Periapsis(deg)": -0.032120281112645,
        "Eccentricity": 0.0,
        "Inclination(deg)": 97.0,
        "Latitude(deg)": 68.2358957483057,
        "Longitude(deg)": -91.15520430937669,
        "Mean Anomaly(deg)": 69.28427201410854,
        "RAAN(deg)": 30.00845107619472,
        "Satellite Name": "Starlink Shell 3 1645",
        "Satellite Number": 1645,
        "Semi-Major Axis(m)": 6938478.169268562,
        "Time(s)": 810
    },
    {
        "Altitude(m)": 575299.0924954995,
        "Argument of Periapsis(deg)": -0.03251682779304802,
        "Eccentricity": 0.0,
        "Inclination(deg)": 97.0,
        "Latitude(deg)": 68.82406974489967,
        "Longitude(deg)": -91.76101005067392,
        "Mean Anomaly(deg)": 69.90974821181356,
        "RAAN(deg)": 30.008555410468734,
        "Satellite Name": "Starlink Shell 3 1645",
        "Satellite Number": 1645,
        "Semi-Major Axis(m)": 6938478.169268562,
        "Time(s)": 820
    },
    {
        "Altitude(m)": 575396.3833418626,
        "Argument of Periapsis(deg)": -0.032913374473451044,
        "Eccentricity": 0.0,
        "Inclination(deg)": 97.0,
        "Latitude(deg)": 69.4102239822372,
        "Longitude(deg)": -92.39742612708838,
        "Mean Anomaly(deg)": 70.53522440951862,
        "RAAN(deg)": 30.008659744742744,
        "Satellite Name": "Starlink Shell 3 1645",
        "Satellite Number": 1645,
        "Semi-Major Axis(m)": 6938478.169268562,
        "Time(s)": 830
    },
    {
        "Altitude(m)": 575491.1866668754,
        "Argument of Periapsis(deg)": -0.03330992115385407,
        "Eccentricity": 0.0,
        "Inclination(deg)": 97.0,
        "Latitude(deg)": 69.9941864985144,
        "Longitude(deg)": -93.06702843349854,
        "Mean Anomaly(deg)": 71.16070060722366,
        "RAAN(deg)": 30.00876407901675,
        "Satellite Name": "Starlink Shell 3 1645",
        "Satellite Number": 1645,
        "Semi-Major Axis(m)": 6938478.169268562,
        "Time(s)": 840
    },
    {
        "Altitude(m)": 575583.4482924849,
        "Argument of Periapsis(deg)": -0.0337064678342571,
        "Eccentricity": 0.0,
        "Inclination(deg)": 97.0,
        "Latitude(deg)": 70.57576522531986,
        "Longitude(deg)": -93.7726727530363,
        "Mean Anomaly(deg)": 71.78617680492872,
        "RAAN(deg)": 30.00886841329076,
        "Satellite Name": "Starlink Shell 3 1645",
        "Satellite Number": 1645,
        "Semi-Major Axis(m)": 6938478.169268562,
        "Time(s)": 850
    },
    {
        "Altitude(m)": 575673.1155481149,
        "Argument of Periapsis(deg)": -0.03410301451466012,
        "Eccentricity": 0.0,
        "Inclination(deg)": 97.0,
        "Latitude(deg)": 71.15474510187686,
        "Longitude(deg)": -94.51753238378348,
        "Mean Anomaly(deg)": 72.41165300263376,
        "RAAN(deg)": 30.00897274756477,
        "Satellite Name": "Starlink Shell 3 1645",
        "Satellite Number": 1645,
        "Semi-Major Axis(m)": 6938478.169268562,
        "Time(s)": 860
    },
    {
        "Altitude(m)": 575760.1372957121,
        "Argument of Periapsis(deg)": -0.034499561195063144,
        "Eccentricity": 0.0,
        "Inclination(deg)": 97.0,
        "Latitude(deg)": 71.73088470525647,
        "Longitude(deg)": -95.30513847226999,
        "Mean Anomaly(deg)": 73.0371292003388,
        "RAAN(deg)": 30.009077081838775,
        "Satellite Name": "Starlink Shell 3 1645",
        "Satellite Number": 1645,
        "Semi-Major Axis(m)": 6938478.169268562,
        "Time(s)": 870
    },
    {
        "Altitude(m)": 575844.4639540343,
        "Argument of Periapsis(deg)": -0.03489610787546617,
        "Eccentricity": 0.0,
        "Inclination(deg)": 97.0,
        "Latitude(deg)": 72.30391230588603,
        "Longitude(deg)": -96.13942882687881,
        "Mean Anomaly(deg)": 73.66260539804385,
        "RAAN(deg)": 30.009181416112785,
        "Satellite Name": "Starlink Shell 3 1645",
        "Satellite Number": 1645,
        "Semi-Major Axis(m)": 6938478.169268562,
        "Time(s)": 880
    },
    {
        "Altitude(m)": 575926.0475221858,
        "Argument of Periapsis(deg)": -0.0352926545558692,
        "Eccentricity": 0.0,
        "Inclination(deg)": 97.0,
        "Latitude(deg)": 72.87352123978486,
        "Longitude(deg)": -97.02480180009348,
        "Mean Anomaly(deg)": 74.28808159574889,
        "RAAN(deg)": 30.0092857503868,
        "Satellite Name": "Starlink Shell 3 1645",
        "Satellite Number": 1645,
        "Semi-Major Axis(m)": 6938478.169268562,
        "Time(s)": 890
    },
    {
        "Altitude(m)": 576004.8416023571,
        "Argument of Periapsis(deg)": -0.035689201236272214,
        "Eccentricity": 0.0,
        "Inclination(deg)": 97.0,
        "Latitude(deg)": 73.4393644677456,
        "Longitude(deg)": -97.96617775085564,
        "Mean Anomaly(deg)": 74.91355779345393,
        "RAAN(deg)": 30.0093900846608,
        "Satellite Name": "Starlink Shell 3 1645",
        "Satellite Number": 1645,
        "Semi-Major Axis(m)": 6938478.169268562,
        "Time(s)": 900
    },
    {
        "Altitude(m)": 576080.8014218204,
        "Argument of Periapsis(deg)": -0.036085747916675244,
        "Eccentricity": 0.0,
        "Inclination(deg)": 97.0,
        "Latitude(deg)": 74.00104816677944,
        "Longitude(deg)": -98.96907042652917,
        "Mean Anomaly(deg)": 75.53903399115896,
        "RAAN(deg)": 30.009494418934814,
        "Satellite Name": "Starlink Shell 3 1645",
        "Satellite Number": 1645,
        "Semi-Major Axis(m)": 6938478.169268562,
        "Time(s)": 910
    },
    {
        "Altitude(m)": 576153.8838541082,
        "Argument of Periapsis(deg)": -0.03648229459707827,
        "Eccentricity": 0.0,
        "Inclination(deg)": 97.0,
        "Latitude(deg)": 74.55812417034467,
        "Longitude(deg)": -100.03966598689364,
        "Mean Anomaly(deg)": 76.16451018886403,
        "RAAN(deg)": 30.009598753208827,
        "Satellite Name": "Starlink Shell 3 1645",
        "Satellite Number": 1645,
        "Semi-Major Axis(m)": 6938478.169268562,
        "Time(s)": 920
    },
    {
        "Altitude(m)": 576224.0474394086,
        "Argument of Periapsis(deg)": -0.0368788412774813,
        "Eccentricity": 0.0,
        "Inclination(deg)": 97.0,
        "Latitude(deg)": 75.1100810413305,
        "Longitude(deg)": -101.1849117282014,
        "Mean Anomaly(deg)": 76.78998638656907,
        "RAAN(deg)": 30.00970308748283,
        "Satellite Name": "Starlink Shell 3 1645",
        "Satellite Number": 1645,
        "Semi-Major Axis(m)": 6938478.169268562,
        "Time(s)": 930
    },
    {
        "Altitude(m)": 576291.2524041432,
        "Argument of Periapsis(deg)": -0.037275387957884314,
        "Eccentricity": 0.0,
        "Inclination(deg)": 97.0,
        "Latitude(deg)": 75.6563335262502,
        "Longitude(deg)": -102.41261616227995,
        "Mean Anomaly(deg)": 77.4154625842741,
        "RAAN(deg)": 30.009807421756843,
        "Satellite Name": "Starlink Shell 3 1645",
        "Satellite Number": 1645,
        "Semi-Major Axis(m)": 6938478.169268562,
        "Time(s)": 940
    }
]